NORAD_CAT_ID,OBJECT_NAME,OBJECT_TYPE,EPOCH,MEAN_MOTION,ECCENTRICITY,INCLINATION,RA_OF_ASC_NODE,ARG_OF_PERICENTER,MEAN_ANOMALY,BSTAR,MEAN_MOTION_DOT,MEAN_MOTION_DDOT,TLE_LINE0,TLE_LINE1,TLE_LINE2,SEMIMAJOR_AXIS,PERIOD,APOGEE,PERIGEE,DECAYED
56466.0,STARLINK-6053,PAYLOAD,2023-10-12 21:21:55,14.98324872,0.0002747,70.0025,200.0904,270.4233,89.6611,0.00011229,1.247e-05,0.0,0 STARLINK-6053,1 56466U 23064U   23285.89022877  .00001247  00000-0  11229-3 0  9997,2 56466  70.0025 200.0904 0002747 270.4233  89.6611 14.98324872 23610,6950.209,96.107,573.983,570.165,0.0
56466.0,STARLINK-6053,PAYLOAD,2023-10-13 11:47:07,14.98333644,0.0002697,70.0025,198.5744,272.1386,87.9464,6.0038e-05,6.24e-06,0.0,0 STARLINK-6053,1 56466U 23064U   23286.49106404  .00000624  00000-0  60038-4 0  9994,2 56466  70.0025 198.5744 0002697 272.1386  87.9464 14.98333644 24069,6950.182,96.107,573.921,570.172,0.0
56466.0,STARLINK-6053,PAYLOAD,2023-10-13 21:23:56,14.98332684,0.0002771,70.0021,197.5657,270.3397,89.7444,3.3937e-05,3.12e-06,0.0,0 STARLINK-6053,1 56466U 23064U   23286.89162407  .00000312  00000-0  33937-4 0  9995,2 56466  70.0021 197.5657 0002771 270.3397  89.7444 14.98332684 23769,6950.185,96.107,573.975,570.124,0.0
56466.0,STARLINK-6053,PAYLOAD,2023-10-14 03:48:27,14.98344535,0.0002782,70.0012,196.8895,269.1535,90.9305,9.0928e-05,9.93e-06,0.0,0 STARLINK-6053,1 56466U 23064U   23287.15865303  .00000993  00000-0  90928-4 0  9998,2 56466  70.0012 196.8895 0002782 269.1535  90.9305 14.98344535 24160,6950.148,96.106,573.946,570.079,0.0
56466.0,STARLINK-6053,PAYLOAD,2023-10-14 11:49:09,14.9832527,0.000251,70.0023,196.0494,272.4582,87.6289,-0.00012919,-1.634e-05,0.0,0 STARLINK-6053,1 56466U 23064U   23287.49247104 -.00001634  00000-0 -12919-3 0  9996,2 56466  70.0023 196.0494 0002510 272.4582  87.6289 14.98325270 23851,6950.208,96.107,573.817,570.328,0.0
56466.0,STARLINK-6053,PAYLOAD,2023-10-14 19:49:50,14.98313927,0.0002895,70.0016,195.2083,266.853,93.2298,-0.00015794,-1.976e-05,0.0,0 STARLINK-6053,1 56466U 23064U   23287.82627902 -.00001976  00000-0 -15794-3 0  9994,2 56466  70.0016 195.2083 0002895 266.8530  93.2298 14.98313927 24269,6950.243,96.108,574.12,570.096,0.0
56466.0,STARLINK-6053,PAYLOAD,2023-10-14 21:25:58,14.98313358,0.0002913,70.0015,195.04,266.7952,93.2874,-0.00015891,-1.988e-05,0.0,0 STARLINK-6053,1 56466U 23064U   23287.89303991 -.00001988  00000-0 -15891-3 0  9991,2 56466  70.0015 195.0400 0002913 266.7952  93.2874 14.98313358 23916,6950.244,96.108,574.134,570.085,0.0
56466.0,STARLINK-6053,PAYLOAD,2023-10-15 03:50:30,14.98318173,0.0003049,70.0011,194.3666,269.8503,90.2306,-0.0001979,-2.453e-05,0.0,0 STARLINK-6053,1 56466U 23064U   23288.16007992 -.00002453  00000-0 -19790-3 0  9994,2 56466  70.0011 194.3666 0003049 269.8503  90.2306 14.98318173 23956,6950.229,96.108,574.214,569.975,0.0
56466.0,STARLINK-6053,PAYLOAD,2023-10-15 19:51:50,14.9833014,0.0003232,70.0008,192.6848,269.3342,90.7446,2.1212e-05,1.6e-06,0.0,0 STARLINK-6053,1 56466U 23064U   23288.82766750  .00000160  00000-0  21212-4 0  9995,2 56466  70.0008 192.6848 0003232 269.3342  90.7446 14.98330140 24415,6950.192,96.107,574.304,569.811,0.0
56466.0,STARLINK-6053,PAYLOAD,2023-10-15 21:27:58,14.98331933,0.000317,70.0009,192.5163,269.6272,90.4524,2.0054e-05,1.46e-06,0.0,0 STARLINK-6053,1 56466U 23064U   23288.89442659  .00000146  00000-0  20054-4 0  9998,2 56466  70.0009 192.5163 0003170 269.6272  90.4524 14.98331933 24067,6950.187,96.107,574.255,569.849,0.0
56466.0,STARLINK-6053,PAYLOAD,2023-10-16 03:52:30,14.98342817,0.0003073,70.0009,191.8421,269.325,90.7557,2.5599e-05,2.13e-06,0.0,0 STARLINK-6053,1 56466U 23064U   23289.16145869  .00000213  00000-0  25599-4 0  9996,2 56466  70.0009 191.8421 0003073 269.3250  90.7557 14.98342817 24467,6950.153,96.106,574.154,569.882,0.0
56466.0,STARLINK-6053,PAYLOAD,2023-10-16 10:17:02,14.98350185,0.000303,70.0008,191.1689,268.2712,91.81,-0.00021139,-2.616e-05,0.0,0 STARLINK-6053,1 56466U 23064U   23289.42849829 -.00002616  00000-0 -21139-3 0  9998,2 56466  70.0008 191.1689 0003030 268.2712  91.8100 14.98350185 24147,6950.13,96.106,574.101,569.89,0.0
56466.0,STARLINK-6053,PAYLOAD,2023-10-18 02:20:24,14.98333799,0.0003046,70.0012,186.961,270.8553,89.2257,-4.9756e-05,-6.87e-06,0.0,0 STARLINK-6053,1 56466U 23064U   23291.09750522 -.00000687  00000-0 -49756-4 0  9997,2 56466  70.0012 186.9610 0003046 270.8553  89.2257 14.98333799 24390,6950.181,96.107,574.163,569.929,0.0
56466.0,STARLINK-6053,PAYLOAD,2023-10-18 10:21:04,14.98335561,0.0002985,70.0009,186.1201,269.9401,90.1416,-7.7477e-05,-1.017e-05,0.0,0 STARLINK-6053,1 56466U 23064U   23291.43130375 -.00001017  00000-0 -77477-4 0  9992,2 56466  70.0009 186.1201 0002985 269.9401  90.1416 14.98335561 24809,6950.176,96.107,574.115,569.966,0.0
56466.0,STARLINK-6053,PAYLOAD,2023-10-18 23:10:09,14.98330941,0.0002971,70.0008,184.7735,271.558,88.5239,1.5062e-05,8.7e-07,0.0,0 STARLINK-6053,1 56466U 23064U   23291.96538213  .00000087  00000-0  15062-4 0  9999,2 56466  70.0008 184.7735 0002971 271.5580  88.5239 14.98330941 24526,6950.19,96.107,574.12,569.99,0.0
56466.0,STARLINK-6053,PAYLOAD,2023-10-19 02:22:24,14.98335593,0.0002788,70.0014,184.4376,271.9261,88.1579,4.6704e-05,4.64e-06,0.0,0 STARLINK-6053,1 56466U 23064U   23292.09889861  .00000464  00000-0  46704-4 0  9998,2 56466  70.0014 184.4376 0002788 271.9261  88.1579 14.98335593 24540,6950.176,96.107,573.978,570.103,0.0
56466.0,STARLINK-6053,PAYLOAD,2023-10-19 16:47:37,14.98330005,0.0002723,70.0015,182.9229,271.95,88.1348,3.2948e-05,3e-06,0.0,0 STARLINK-6053,1 56466U 23064U   23292.69974077  .00000300  00000-0  32948-4 0  9992,2 56466  70.0015 182.9229 0002723 271.9500  88.1348 14.98330005 24992,6950.193,96.107,573.95,570.165,0.0
56466.0,STARLINK-6053,PAYLOAD,2023-10-20 02:24:25,14.9835134,0.0002719,70.0013,181.9127,268.4563,91.6285,-0.00015473,-1.94e-05,0.0,0 STARLINK-6053,1 56466U 23064U   23293.10029226 -.00001940  00000-0 -15473-3 0  9992,2 56466  70.0013 181.9127 0002719 268.4563  91.6285 14.98351340 25053,6950.127,96.106,573.882,570.102,0.0
56466.0,STARLINK-6053,PAYLOAD,2023-10-20 16:49:38,14.98327162,0.0002387,70.0032,180.3971,271.7146,88.374,-3.1853e-05,-4.73e-06,0.0,0 STARLINK-6053,1 56466U 23064U   23293.70114338 -.00000473  00000-0 -31853-4 0  9998,2 56466  70.0032 180.3971 0002387 271.7146  88.3740 14.98327162 25143,6950.202,96.107,573.726,570.408,0.0
56466.0,STARLINK-6053,PAYLOAD,2023-10-20 21:38:03,14.98323683,0.0002865,70.0016,179.8921,266.1574,93.9258,-5.7025e-05,-7.73e-06,0.0,0 STARLINK-6053,1 56466U 23064U   23293.90142580 -.00000773  00000-0 -57025-4 0  9992,2 56466  70.0016 179.8921 0002865 266.1574  93.9258 14.98323683 24810,6950.212,96.107,574.069,570.086,0.0
56466.0,STARLINK-6053,PAYLOAD,2023-10-21 02:26:28,14.98315403,0.000229,70.0027,179.388,277.7781,82.3118,-0.00018526,-2.302e-05,0.0,0 STARLINK-6053,1 56466U 23064U   23294.10171756 -.00002302  00000-0 -18526-3 0  9994,2 56466  70.0027 179.3880 0002290 277.7781  82.3118 14.98315403 25203,6950.238,96.108,573.695,570.511,0.0
56466.0,STARLINK-6053,PAYLOAD,2023-10-21 21:40:02,14.98339501,0.0001352,70.0041,177.3675,254.541,105.5599,0.00015913,1.807e-05,0.0,0 STARLINK-6053,1 56466U 23064U   23294.90281220  .00001807  00000-0  15913-3 0  9994,2 56466  70.0041 177.3675 0001352 254.5410 105.5599 14.98339501 24967,6950.164,96.106,572.968,571.089,0.0
56466.0,STARLINK-6053,PAYLOAD,2023-10-22 02:28:27,14.9833837,0.0002269,70.0027,176.8635,264.5408,95.5493,6.7011e-05,7.07e-06,0.0,0 STARLINK-6053,1 56466U 23064U   23295.10309247  .00000707  00000-0  67011-4 0  9992,2 56466  70.0027 176.8635 0002269 264.5408  95.5493 14.98338370 25355,6950.167,96.106,573.609,570.455,0.0
56466.0,STARLINK-6053,PAYLOAD,2023-10-22 20:05:57,14.98314108,0.0002391,70.0019,175.0137,265.2103,94.8783,6.4007e-05,6.71e-06,0.0,0 STARLINK-6053,1 56466U 23064U   23295.83746945  .00000671  00000-0  64007-4 0  9994,2 56466  70.0019 175.0137 0002391 265.2103  94.8783 14.98314108 25469,6950.242,96.108,573.769,570.445,0.0
56466.0,STARLINK-6053,PAYLOAD,2023-10-23 18:31:50,14.98337468,0.0003222,69.9998,172.6548,274.1758,85.9033,-0.0002202,-2.72e-05,0.0,0 STARLINK-6053,1 56466U 23064U   23296.77210679 -.00002720  00000-0 -22020-3 0  9995,2 56466  69.9998 172.6548 0003222 274.1758  85.9033 14.98337468 25609,6950.17,96.107,574.274,569.795,0.0
56466.0,STARLINK-6053,PAYLOAD,2023-10-23 21:44:05,14.98336318,0.0002662,70.0007,172.3193,268.1521,91.9333,-0.00011933,-1.517e-05,0.0,0 STARLINK-6053,1 56466U 23064U   23296.90562414 -.00001517  00000-0 -11933-3 0  9991,2 56466  70.0007 172.3193 0002662 268.1521  91.9333 14.98336318 25269,6950.173,96.107,573.888,570.188,0.0
56466.0,STARLINK-6053,PAYLOAD,2023-10-24 08:57:01,14.98363454,0.0002881,70.0006,171.1409,275.6835,84.3996,-0.00049838,-6.04e-05,0.0,0 STARLINK-6053,1 56466U 23064U   23297.37293286 -.00006040  00000-0 -49838-3 0  9992,2 56466  70.0006 171.1409 0002881 275.6835  84.3996 14.98363454 25698,6950.089,96.105,573.957,569.952,0.0
56466.0,STARLINK-6053,PAYLOAD,2023-10-25 02:34:30,14.98333967,0.0003001,69.9999,169.2882,275.4006,84.6811,0.00017329,1.975e-05,0.0,0 STARLINK-6053,1 56466U 23064U   23298.10729499  .00001975  00000-0  17329-3 0  9994,2 56466  69.9999 169.2882 0003001 275.4006  84.6811 14.98333967 25800,6950.181,96.107,574.131,569.96,0.0
56466.0,STARLINK-6053,PAYLOAD,2023-10-25 21:48:07,14.98332273,0.0002773,70.0002,167.2678,269.1299,90.9543,-4.118e-07,-9.8e-07,0.0,0 STARLINK-6053,1 56466U 23064U   23298.90842053 -.00000098  00000-0 -41180-6 0  9996,2 56466  70.0002 167.2678 0002773 269.1299  90.9543 14.98332273 25562,6950.186,96.107,573.978,570.124,0.0
56466.0,STARLINK-6053,PAYLOAD,2023-10-26 01:00:23,14.98332865,0.0003035,69.9996,166.9309,274.9595,85.1218,-4.5458e-06,-1.47e-06,0.0,0 STARLINK-6053,1 56466U 23064U   23299.04194010 -.00000147  00000-0 -45458-5 0  9991,2 56466  69.9996 166.9309 0003035 274.9595  85.1218 14.98332865 25947,6950.184,96.107,574.158,569.94,0.0
